satname,norad_id,inclination_deg,eccentricity,mean_motion_rev_per_day,perigee_km,apogee_km,l1,l2
STARLINK-1451,45668,53.0538,0.0003394,15.07512397,541.4550111011031,546.1536248677521,1 45668U 20035M   26023.63763069  .00006744  00000+0  45741-3 0  9996,2 45668  53.0538 269.0723 0003394 123.8442 236.2871 15.07512397311944
STARLINK-1452,45669,53.0344,0.0004409,15.36817557,452.5142099751429,458.54013504246086,1 45669U 20035N   26023.60994868  .00025280  00000+0  70053-3 0  9997,2 45669  53.0344 235.2557 0004409 160.7259 199.3911 15.36817557312419
STARLINK-1453,45670,53.0516,0.0007717,15.41850941,435.38464812557686,445.9087588935745,1 45670U 20035P   26022.98374849  .00024556  00000+0  57733-3 0  9995,2 45670  53.0516 231.8474 0007717 144.6378 215.5140 15.41850941312291
STARLINK-1454,45671,53.0538,0.0001103,15.31970747,469.1776892489506,470.688373497871,1 45671U 20035Q   26023.66670139  .01694023  00000+0  48911-1 0  9992,2 45671  53.0538 267.5265 0001103  83.6120 162.4000 15.31970747  5740
STARLINK-1456,45673,53.0528,0.0007461,15.4002206,440.9526271274299,451.1356702374942,1 45673U 20035S   26023.35366190  .00083984  00000+0  20574-2 0  9992,2 45673  53.0528 262.4185 0007461 124.0268 236.1445 15.40022060312011
STARLINK-1457,45674,53.0501,0.0001287,15.63497861,376.6928892335063,378.431806245615,1 45674U 20035T   26023.33067147  .00076909  00000+0  81381-3 0  9994,2 45674  53.0501 247.2841 0001287  84.7006 275.4155 15.63497861312198
STARLINK-1458,45675,53.0535,0.0001207,15.23847008,493.4203326689121,495.07932684961634,1 45675U 20035U   26023.66670139  .00970996  00000+0  36641-1 0  9998,2 45675  53.0535 267.8687 0001207  83.1460 285.0400 15.23847008  5749
STARLINK-1460,45676,53.0534,0.0001091,15.06405414,546.4394111403662,547.9505185750977,1 45676U 20035V   26023.65173189  .00008002  00000+0  55540-3 0  9992,2 45676  53.0534 268.8009 0001091  92.0233 268.0881 15.06405414311900
STARLINK-1392,45677,53.0527,0.0001421,15.06399519,546.228939894826,548.197124373959,1 45677U 20035W   26023.66279276  .00006514  00000+0  45577-3 0  9993,2 45677  53.0527 268.7517 0001421  86.1069 274.0082 15.06399519311946
STARLINK-1394,45679,53.0528,0.0006057,15.40586832,440.24384168612687,448.5086342225841,1 45679U 20035Y   26023.64974292  .00025950  00000+0  63569-3 0  9999,2 45679  53.0528 250.9663 0006057 129.6246 230.5293 15.40586832312197
STARLINK-1402,45685,53.0523,0.0010613,15.36956146,447.86423527080206,462.36849886774326,1 45685U 20035AE  26023.58622540  .00034981  00000+0  95841-3 0  9997,2 45685  53.0523 236.9724 0010613 113.3876 246.8243 15.36956146312394
STARLINK-1404,45686,53.1047,0.0001778,15.17903331,510.9532498383378,513.4034459760524,1 45686U 20035AF  26023.66670139  .01779648  00000+0  78993-1 0  9998,2 45686  53.1047 258.4847 0001778 100.1607 294.8633 15.17903331  5741
STARLINK-1413,45689,53.1092,0.0001129,15.18661181,509.10820603890625,510.66352160155566,1 45689U 20035AJ  26023.66670139  .01791453  00000+0  77756-1 0  9995,2 45689  53.1092 258.4440 0001129 104.7415 211.2060 15.18661181  5696
STARLINK-1417,45693,53.0515,0.000751,15.0975875,531.7433417301145,542.1297822201996,1 45693U 20035AN  26023.62456079  .00008373  00000+0  52999-3 0  9996,2 45693  53.0515 258.1246 0007510 104.4395 255.7429 15.09758750312080
STARLINK-1420,45695,53.0559,0.0001672,15.30835975,472.1712570623631,474.46238321981764,1 45695U 20035AQ  26023.66670139  .01688679  00000+0  50520-1 0  9997,2 45695  53.0559 237.6044 0001672  93.4603 296.9674 15.30835975  5694
STARLINK-1422,45696,53.1076,0.0001595,15.18729376,508.5810617854513,510.7782753027177,1 45696U 20035AR  26023.66670139  .00792389  00000+0  35256-1 0  9990,2 45696  53.1076 258.2411 0001595  98.3558 290.9589 15.18729376  5696
STARLINK-1351,45697,53.0548,0.0001985,15.32164103,467.997650027658,470.7161050970508,1 45697U 20035AS  26023.66670139  .00150432  00000+0  46936-2 0  9996,2 45697  53.0548 236.6131 0001985 117.8998 143.5555 15.32164103  5702
STARLINK-1398,45699,53.0422,0.0003026,15.72850172,348.71957082393965,352.79189670641426,1 45699U 20035AU  26023.66670139  .00316679  00000+0  22090-2 0  9990,2 45699  53.0422 166.0992 0003026 228.3076  31.7037 15.72850172  5861
STARLINK-1400,45700,53.054,0.0001181,15.31326934,471.0433275904661,472.6612950658018,1 45700U 20035AV  26023.66670139  .01669838  00000+0  49257-1 0  9995,2 45700  53.0540 237.5612 0001181  80.0782 189.5443 15.31326934  5799
STARLINK-1403,45701,53.0551,0.0001257,15.06381798,546.3968216822759,548.1378683346111,1 45701U 20035AW  26023.62500782  .00000918  00000+0  80577-4 0  9998,2 45701  53.0551 238.9224 0001257  90.7208 269.3925 15.06381798312357
STARLINK-1407,45703,53.0423,0.0008953,15.5146433,406.37028683320113,418.5295117350606,1 45703U 20035AY  26023.40865094  .00090749  00000+0  14995-2 0  9996,2 45703  53.0423 174.9931 0008953 294.9750  65.0328 15.51464330313242
STARLINK-1411,45706,53.0463,9.7e-05,15.54026093,404.3271723744765,405.64309806870915,1 45706U 20035BB  26023.52905656  .00091427  00000+0  13793-2 0  9990,2 45706  53.0463 200.7290 0000970 222.9488 137.1446 15.54026093312889
STARLINK-1423,45710,53.0618,0.0001362,15.3456336,461.28608661805356,463.14939925003,1 45710U 20035BF  26023.66670139  .01042177  00000+0  28171-1 0  9999,2 45710  53.0618 237.2520 0001362  97.6043  32.0346 15.34563360  5799
STARLINK-1433,45711,53.063,0.0001348,15.36074117,456.81045625524894,458.65340651915085,1 45711U 20035BG  26023.66670139  .01117110  00000+0  28602-1 0  9999,2 45711  53.0630 237.0127 0001348  88.9357 263.0769 15.36074117  5648
STARLINK-1434,45712,53.0547,0.0004597,15.21405218,498.4385056396077,504.7637368682881,1 45712U 20035BH  26023.26038797  .00039622  00000+0  17482-2 0  9999,2 45712  53.0547 229.6651 0004597  89.6498 270.5024 15.21405218312460
STARLINK-1465,45731,53.0551,0.000181,15.26675076,484.51773702106766,487.0024677721358,1 45731U 20038B   26023.66670139  .01635639  00000+0  55722-1 0  9998,2 45731  53.0551  77.4758 0001810  59.7118 234.6830 15.26675076  5703
STARLINK-1471,45735,53.0505,0.0003068,15.45150188,428.84778633013957,433.0258340200626,1 45735U 20038F   26023.23649988  .00030342  00000+0  63646-3 0  9998,2 45735  53.0505 359.2380 0003068  83.3548 276.7807 15.45150188310494
STARLINK-1474,45738,53.0268,0.0005678,15.90044245,298.3658597427493,305.95200380287133,1 45738U 20038J   26023.66670139  .00378071  64216-4  12393-2 0  9990,2 45738  53.0268 293.8720 0005678 149.3805 289.5253 15.90044245  5957
STARLINK-1480,45741,53.053,0.0006834,15.39943251,441.6131676041423,450.9407766212262,1 45741U 20038M   26023.56228020  .00111622  00000+0  27289-2 0  9994,2 45741  53.0530  71.9766 0006834  22.4685 337.6617 15.39943251309505
STARLINK-1500,45744,53.0387,0.000385,15.32115008,466.8668157717666,472.13949869283533,1 45744U 20038Q   26023.31592975  .00029822  00000+0  95628-3 0  9996,2 45744  53.0387  45.1626 0003850  82.8310 277.3128 15.32115008309855
STARLINK-1504,45746,53.0261,0.0004339,15.49935013,413.9676282766004,419.86437527154067,1 45746U 20038S   26023.33918366  .00042343  00000+0  74834-3 0  9995,2 45746  53.0261   0.4445 0004339  64.1170 296.0285 15.49935013310477
STARLINK-1506,45747,53.078,0.0004664,15.24703114,488.47298867440804,494.88115123886473,1 45747U 20038T   26023.45341803  .00062728  00000+0  24951-2 0  9998,2 45747  53.0780  51.3766 0004664  92.4834 267.6697 15.24703114309788
STARLINK-1464,45751,53.0543,0.0001339,15.27671015,481.8579015898413,483.6952542460076,1 45751U 20038X   26023.66670139  .01726801  00000+0  56765-1 0  9990,2 45751  53.0543  57.6325 0001339  60.0881 242.5210 15.27671015  5748
STARLINK-1477,45754,53.0518,0.0001352,15.11341258,531.1743247933427,533.042855200877,1 45754U 20038AA  26023.51464479  .00012348  00000+0  74015-3 0  9998,2 45754  53.0518  57.8401 0001352 248.0615 112.0233 15.11341258309691
STARLINK-1478,45755,53.0541,0.0002188,15.45014745,429.84483480474046,432.8246596413255,1 45755U 20038AB  26023.38035821  .00061972  00000+0  12915-2 0  9996,2 45755  53.0541  55.4132 0002188  62.6615 297.4613 15.45014745309708
STARLINK-1484,45756,53.0072,0.0004752,15.79765885,327.91517733099045,334.29163941510706,1 45756U 20038AC  26023.66670139  .00242840  00000+0  12611-2 0  9993,2 45756  53.0072 285.8141 0004752 134.5572 144.1367 15.79765885  5934
STARLINK-1493,45759,53.0547,0.0001446,15.21739724,499.5982258003487,501.5875544845794,1 45759U 20038AF  26023.66670139  .01016790  00000+0  40662-1 0  9996,2 45759  53.0547  57.9925 0001446  85.0786 273.8498 15.21739724  5740
STARLINK-1494,45760,53.0522,0.0001639,15.65576681,370.4744636689202,372.6870211448813,1 45760U 20038AG  26023.34820614  .00084888  00000+0  82597-3 0  9995,2 45760  53.0522  15.6168 0001639  91.3771 268.7431 15.65576681310279
STARLINK-1502,45764,53.054,0.0001189,15.17320704,513.122614458186,514.7615508640429,1 45764U 20038AL  26023.66670139  .00981215  00000+0  44710-1 0  9992,2 45764  53.0540  58.2626 0001189  58.1074 342.8687 15.17320704  5797
STARLINK-1470,45772,53.0453,6.69e-05,15.23913147,493.59123437002745,494.5107331222516,1 45772U 20038AU  26023.28465517  .00031362  00000+0  12897-2 0  9992,2 45772  53.0453  24.3947 0000669 166.5052 193.5962 15.23913147310142
STARLINK-1482,45773,53.0536,9.6e-05,15.0642253,546.4776807610706,547.8073344265295,1 45773U 20038AV  26023.33750267  .00017634  00000+0  11991-2 0  9998,2 45773  53.0536  40.2116 0000960  90.3372 269.7727 15.06422530309924
STARLINK-1496,45780,53.0562,0.0004955,15.39454719,444.33846055892536,451.1028855129043,1 45780U 20038BC  26023.39706417  .00028395  00000+0  72084-3 0  9997,2 45780  53.0562  33.1974 0004955  54.2504 305.8960 15.39454719310011
STARLINK-1497,45781,53.0297,0.0008182,15.91693654,292.08107573780126,303.00515868160437,1 45781U 20038BD  26023.66670139  .00537623  12388-3  16135-2 0  9998,2 45781  53.0297 306.1933 0008182 119.5016  43.4541 15.91693654  5993
